CCSDS_OMM_VERS = 2.0
CREATION_DATE  = 
ORIGINATOR     = 

OBJECT_NAME    = KUIPER-00225
OBJECT_ID      = 2026-030W
CENTER_NAME    = EARTH
REF_FRAME      = TEME
TIME_SYSTEM    = UTC
MEAN_ELEMENT_THEORY = SGP/SGP4

EPOCH          = 2026-02-24T05:20:58.271424
MEAN_MOTION    = 15.35271607
ECCENTRICITY   = .00035585
INCLINATION    = 51.8823
RA_OF_ASC_NODE = 284.0570
ARG_OF_PERICENTER = 9.1114
MEAN_ANOMALY   = 350.9936

EPHEMERIS_TYPE = 0
CLASSIFICATION_TYPE = U
NORAD_CAT_ID   = 67784
ELEMENT_SET_NO = 999
REV_AT_EPOCH   = 302
BSTAR          = .71194787E-3
MEAN_MOTION_DOT = .24457E-3
MEAN_MOTION_DDOT = 0

CCSDS_OMM_VERS = 2.0
CREATION_DATE  = 
ORIGINATOR     = 

OBJECT_NAME    = KUIPER-00226
OBJECT_ID      = 2026-030X
CENTER_NAME    = EARTH
REF_FRAME      = TEME
TIME_SYSTEM    = UTC
MEAN_ELEMENT_THEORY = SGP/SGP4

EPOCH          = 2026-02-24T05:55:54.654240
MEAN_MOTION    = 15.31590390
ECCENTRICITY   = .00196926
INCLINATION    = 51.8812
RA_OF_ASC_NODE = 284.2115
ARG_OF_PERICENTER = 30.7595
MEAN_ANOMALY   = 329.4539

EPHEMERIS_TYPE = 0
CLASSIFICATION_TYPE = U
NORAD_CAT_ID   = 67785
ELEMENT_SET_NO = 999
REV_AT_EPOCH   = 302
BSTAR          = -.56975939E-4
MEAN_MOTION_DOT = -.2153E-4
MEAN_MOTION_DDOT = 0

CCSDS_OMM_VERS = 2.0
CREATION_DATE  = 
ORIGINATOR     = 

OBJECT_NAME    = KUIPER-00259
OBJECT_ID      = 2026-030Y
CENTER_NAME    = EARTH
REF_FRAME      = TEME
TIME_SYSTEM    = UTC
MEAN_ELEMENT_THEORY = SGP/SGP4

EPOCH          = 2026-02-24T05:29:45.593088
MEAN_MOTION    = 15.34463886
ECCENTRICITY   = .00077493
INCLINATION    = 51.8822
RA_OF_ASC_NODE = 284.0954
ARG_OF_PERICENTER = 11.6734
MEAN_ANOMALY   = 348.4430

EPHEMERIS_TYPE = 0
CLASSIFICATION_TYPE = U
NORAD_CAT_ID   = 67786
ELEMENT_SET_NO = 999
REV_AT_EPOCH   = 302
BSTAR          = .79484882E-3
MEAN_MOTION_DOT = .26673E-3
MEAN_MOTION_DDOT = 0

CCSDS_OMM_VERS = 2.0
CREATION_DATE  = 
ORIGINATOR     = 

OBJECT_NAME    = KUIPER-00260
OBJECT_ID      = 2026-030Z
CENTER_NAME    = EARTH
REF_FRAME      = TEME
TIME_SYSTEM    = UTC
MEAN_ELEMENT_THEORY = SGP/SGP4

EPOCH          = 2026-02-24T05:14:40.807968
MEAN_MOTION    = 15.35812569
ECCENTRICITY   = .00011588
INCLINATION    = 51.8806
RA_OF_ASC_NODE = 284.0286
ARG_OF_PERICENTER = 82.5717
MEAN_ANOMALY   = 277.5401

EPHEMERIS_TYPE = 0
CLASSIFICATION_TYPE = U
NORAD_CAT_ID   = 67787
ELEMENT_SET_NO = 999
REV_AT_EPOCH   = 293
BSTAR          = .73166764E-3
MEAN_MOTION_DOT = .2559E-3
MEAN_MOTION_DDOT = 0

CCSDS_OMM_VERS = 2.0
CREATION_DATE  = 
ORIGINATOR     = 

OBJECT_NAME    = KUIPER-00262
OBJECT_ID      = 2026-030AA
CENTER_NAME    = EARTH
REF_FRAME      = TEME
TIME_SYSTEM    = UTC
MEAN_ELEMENT_THEORY = SGP/SGP4

EPOCH          = 2026-02-24T05:12:15.855552
MEAN_MOTION    = 15.36110471
ECCENTRICITY   = .00014969
INCLINATION    = 51.8824
RA_OF_ASC_NODE = 284.0190
ARG_OF_PERICENTER = 118.6969
MEAN_ANOMALY   = 241.4168

EPHEMERIS_TYPE = 0
CLASSIFICATION_TYPE = U
NORAD_CAT_ID   = 67788
ELEMENT_SET_NO = 999
REV_AT_EPOCH   = 302
BSTAR          = .68506195E-3
MEAN_MOTION_DOT = .24163E-3
MEAN_MOTION_DDOT = 0

CCSDS_OMM_VERS = 2.0
CREATION_DATE  = 
ORIGINATOR     = 

OBJECT_NAME    = KUIPER-00266
OBJECT_ID      = 2026-030AB
CENTER_NAME    = EARTH
REF_FRAME      = TEME
TIME_SYSTEM    = UTC
MEAN_ELEMENT_THEORY = SGP/SGP4

EPOCH          = 2026-02-24T05:59:14.732448
MEAN_MOTION    = 15.31486774
ECCENTRICITY   = .00218701
INCLINATION    = 51.8809
RA_OF_ASC_NODE = 284.2250
ARG_OF_PERICENTER = 32.9184
MEAN_ANOMALY   = 327.3158

EPHEMERIS_TYPE = 0
CLASSIFICATION_TYPE = U
NORAD_CAT_ID   = 67789
ELEMENT_SET_NO = 999
REV_AT_EPOCH   = 302
BSTAR          = .73295011E-3
MEAN_MOTION_DOT = .22471E-3
MEAN_MOTION_DDOT = 0

CCSDS_OMM_VERS = 2.0
CREATION_DATE  = 
ORIGINATOR     = 

OBJECT_NAME    = KUIPER-00268
OBJECT_ID      = 2026-030AC
CENTER_NAME    = EARTH
REF_FRAME      = TEME
TIME_SYSTEM    = UTC
MEAN_ELEMENT_THEORY = SGP/SGP4

EPOCH          = 2026-02-24T05:18:32.944032
MEAN_MOTION    = 15.35450216
ECCENTRICITY   = .00019296
INCLINATION    = 51.8856
RA_OF_ASC_NODE = 284.0508
ARG_OF_PERICENTER = 23.3042
MEAN_ANOMALY   = 336.8031

EPHEMERIS_TYPE = 0
CLASSIFICATION_TYPE = U
NORAD_CAT_ID   = 67790
ELEMENT_SET_NO = 999
REV_AT_EPOCH   = 302
BSTAR          = .71111726E-3
MEAN_MOTION_DOT = .24568E-3
MEAN_MOTION_DDOT = 0

CCSDS_OMM_VERS = 2.0
CREATION_DATE  = 
ORIGINATOR     = 

OBJECT_NAME    = KUIPER-00270
OBJECT_ID      = 2026-030AD
CENTER_NAME    = EARTH
REF_FRAME      = TEME
TIME_SYSTEM    = UTC
MEAN_ELEMENT_THEORY = SGP/SGP4

EPOCH          = 2026-02-24T05:33:57.373920
MEAN_MOTION    = 15.34052654
ECCENTRICITY   = .00095653
INCLINATION    = 51.8822
RA_OF_ASC_NODE = 284.1135
ARG_OF_PERICENTER = 17.0402
MEAN_ANOMALY   = 343.0902

EPHEMERIS_TYPE = 0
CLASSIFICATION_TYPE = U
NORAD_CAT_ID   = 67791
ELEMENT_SET_NO = 999
REV_AT_EPOCH   = 302
BSTAR          = .72825725E-3
MEAN_MOTION_DOT = .24089E-3
MEAN_MOTION_DDOT = 0

CCSDS_OMM_VERS = 2.0
CREATION_DATE  = 
ORIGINATOR     = 

OBJECT_NAME    = KUIPER-00274
OBJECT_ID      = 2026-030AE
CENTER_NAME    = EARTH
REF_FRAME      = TEME
TIME_SYSTEM    = UTC
MEAN_ELEMENT_THEORY = SGP/SGP4

EPOCH          = 2026-02-24T05:50:14.891424
MEAN_MOTION    = 15.32279775
ECCENTRICITY   = .00177352
INCLINATION    = 51.8829
RA_OF_ASC_NODE = 284.1907
ARG_OF_PERICENTER = 29.3345
MEAN_ANOMALY   = 330.8632

EPHEMERIS_TYPE = 0
CLASSIFICATION_TYPE = U
NORAD_CAT_ID   = 67792
ELEMENT_SET_NO = 999
REV_AT_EPOCH   = 302
BSTAR          = -.8455733E-4
MEAN_MOTION_DOT = -.3068E-4
MEAN_MOTION_DDOT = 0

CCSDS_OMM_VERS = 2.0
CREATION_DATE  = 
ORIGINATOR     = 

OBJECT_NAME    = KUIPER-00275
OBJECT_ID      = 2026-030AF
CENTER_NAME    = EARTH
REF_FRAME      = TEME
TIME_SYSTEM    = UTC
MEAN_ELEMENT_THEORY = SGP/SGP4

EPOCH          = 2026-02-24T05:31:08.359968
MEAN_MOTION    = 15.34329461
ECCENTRICITY   = .00080677
INCLINATION    = 51.8851
RA_OF_ASC_NODE = 284.1082
ARG_OF_PERICENTER = 15.0874
MEAN_ANOMALY   = 345.0351

EPHEMERIS_TYPE = 0
CLASSIFICATION_TYPE = U
NORAD_CAT_ID   = 67793
ELEMENT_SET_NO = 999
REV_AT_EPOCH   = 302
BSTAR          = .75985517E-3
MEAN_MOTION_DOT = .2537E-3
MEAN_MOTION_DDOT = 0

CCSDS_OMM_VERS = 2.0
CREATION_DATE  = 
ORIGINATOR     = 

OBJECT_NAME    = KUIPER-00276
OBJECT_ID      = 2026-030AG
CENTER_NAME    = EARTH
REF_FRAME      = TEME
TIME_SYSTEM    = UTC
MEAN_ELEMENT_THEORY = SGP/SGP4

EPOCH          = 2026-02-24T06:00:02.000160
MEAN_MOTION    = 15.31567739
ECCENTRICITY   = .00182162
INCLINATION    = 51.8823
RA_OF_ASC_NODE = 284.1842
ARG_OF_PERICENTER = 26.0309
MEAN_ANOMALY   = 358.4712

EPHEMERIS_TYPE = 0
CLASSIFICATION_TYPE = U
NORAD_CAT_ID   = 67794
ELEMENT_SET_NO = 999
REV_AT_EPOCH   = 273
BSTAR          = -.28658341E-3
MEAN_MOTION_DOT = -.9279E-4
MEAN_MOTION_DDOT = 0

CCSDS_OMM_VERS = 2.0
CREATION_DATE  = 
ORIGINATOR     = 

OBJECT_NAME    = KUIPER-00279
OBJECT_ID      = 2026-030AH
CENTER_NAME    = EARTH
REF_FRAME      = TEME
TIME_SYSTEM    = UTC
MEAN_ELEMENT_THEORY = SGP/SGP4

EPOCH          = 2026-02-24T02:19:07.334688
MEAN_MOTION    = 15.34755480
ECCENTRICITY   = .00060014
INCLINATION    = 51.8813
RA_OF_ASC_NODE = 284.7088
ARG_OF_PERICENTER = 11.3715
MEAN_ANOMALY   = 348.7405

EPHEMERIS_TYPE = 0
CLASSIFICATION_TYPE = U
NORAD_CAT_ID   = 67795
ELEMENT_SET_NO = 999
REV_AT_EPOCH   = 300
BSTAR          = .88183593E-3
MEAN_MOTION_DOT = .29915E-3
MEAN_MOTION_DDOT = 0

CCSDS_OMM_VERS = 2.0
CREATION_DATE  = 
ORIGINATOR     = 

OBJECT_NAME    = CREW DRAGON 12
OBJECT_ID      = 2026-031A
CENTER_NAME    = EARTH
REF_FRAME      = TEME
TIME_SYSTEM    = UTC
MEAN_ELEMENT_THEORY = SGP/SGP4

EPOCH          = 2026-02-24T05:14:04.047360
MEAN_MOTION    = 15.48257925
ECCENTRICITY   = .00084272
INCLINATION    = 51.6318
RA_OF_ASC_NODE = 138.9491
ARG_OF_PERICENTER = 128.0072
MEAN_ANOMALY   = 232.1679

EPHEMERIS_TYPE = 0
CLASSIFICATION_TYPE = U
NORAD_CAT_ID   = 67796
ELEMENT_SET_NO = 999
REV_AT_EPOCH   = 55421
BSTAR          = .22801862E-3
MEAN_MOTION_DOT = .11823E-3
MEAN_MOTION_DDOT = 0

CCSDS_OMM_VERS = 2.0
CREATION_DATE  = 
ORIGINATOR     = 

OBJECT_NAME    = STARLINK-36800
OBJECT_ID      = 2026-032A
CENTER_NAME    = EARTH
REF_FRAME      = TEME
TIME_SYSTEM    = UTC
MEAN_ELEMENT_THEORY = SGP/SGP4

EPOCH          = 2026-02-23T16:00:03.000096
MEAN_MOTION    = 15.90904989
ECCENTRICITY   = .0001284
INCLINATION    = 97.2870
RA_OF_ASC_NODE = 240.3960
ARG_OF_PERICENTER = 80.0984
MEAN_ANOMALY   = 214.9156

EPHEMERIS_TYPE = 0
CLASSIFICATION_TYPE = U
NORAD_CAT_ID   = 67797
ELEMENT_SET_NO = 999
REV_AT_EPOCH   = 252
BSTAR          = -.60359E-2
MEAN_MOTION_DOT = -.1862359E-1
MEAN_MOTION_DDOT = .94321E-3

CCSDS_OMM_VERS = 2.0
CREATION_DATE  = 
ORIGINATOR     = 

OBJECT_NAME    = STARLINK-36798
OBJECT_ID      = 2026-032B
CENTER_NAME    = EARTH
REF_FRAME      = TEME
TIME_SYSTEM    = UTC
MEAN_ELEMENT_THEORY = SGP/SGP4

EPOCH          = 2026-02-23T16:00:03.000096
MEAN_MOTION    = 15.91097752
ECCENTRICITY   = .0001244
INCLINATION    = 97.2865
RA_OF_ASC_NODE = 240.3974
ARG_OF_PERICENTER = 75.9154
MEAN_ANOMALY   = 222.8269

EPHEMERIS_TYPE = 0
CLASSIFICATION_TYPE = U
NORAD_CAT_ID   = 67798
ELEMENT_SET_NO = 999
REV_AT_EPOCH   = 246
BSTAR          = -.59881E-2
MEAN_MOTION_DOT = -.1865731E-1
MEAN_MOTION_DDOT = .94824E-3

